[{"OBJECT_NAME":"OBJECT C","OBJECT_ID":"2023-104C","EPOCH":"2026-03-09T22:39:44.230752","MEAN_MOTION":15.26846312,"ECCENTRICITY":0.00113074,"INCLINATION":97.273,"RA_OF_ASC_NODE":135.3333,"ARG_OF_PERICENTER":3.876,"MEAN_ANOMALY":356.2565,"EPHEMERIS_TYPE":0,"CLASSIFICATION_TYPE":"U","NORAD_CAT_ID":57426,"ELEMENT_SET_NO":999,"REV_AT_EPOCH":14663,"BSTAR":0.00062618506,"MEAN_MOTION_DOT":0.00016495,"MEAN_MOTION_DDOT":0},{"OBJECT_NAME":"STARLINK-32616","OBJECT_ID":"2024-207J","EPOCH":"2026-03-09T23:10:23.967552","MEAN_MOTION":15.27586336,"ECCENTRICITY":0.00023795,"INCLINATION":43.0046,"RA_OF_ASC_NODE":280.2373,"ARG_OF_PERICENTER":264.898,"MEAN_ANOMALY":95.16,"EPHEMERIS_TYPE":0,"CLASSIFICATION_TYPE":"U","NORAD_CAT_ID":61920,"ELEMENT_SET_NO":999,"REV_AT_EPOCH":7476,"BSTAR":0.001015076,"MEAN_MOTION_DOT":0.00027782,"MEAN_MOTION_DDOT":0}]
